CCSDS_OMM_VERS = 2.0
CREATION_DATE  = 
ORIGINATOR     = 

OBJECT_NAME    = STARLINK-35915
OBJECT_ID      = 2025-265F
CENTER_NAME    = EARTH
REF_FRAME      = TEME
TIME_SYSTEM    = UTC
MEAN_ELEMENT_THEORY = SGP/SGP4

EPOCH          = 2025-12-01T12:00:05.998752
MEAN_MOTION    = 15.75995969
ECCENTRICITY   = .0001337
INCLINATION    = 42.9996
RA_OF_ASC_NODE = 120.9453
ARG_OF_PERICENTER = 281.4351
MEAN_ANOMALY   = 274.0916

EPHEMERIS_TYPE = 0
CLASSIFICATION_TYPE = U
NORAD_CAT_ID   = 66521
ELEMENT_SET_NO = 999
REV_AT_EPOCH   = 318
BSTAR          = -.83026E-2
MEAN_MOTION_DOT = -.1181742E-1
MEAN_MOTION_DDOT = 0

CCSDS_OMM_VERS = 2.0
CREATION_DATE  = 
ORIGINATOR     = 

OBJECT_NAME    = STARLINK-35946
OBJECT_ID      = 2025-265G
CENTER_NAME    = EARTH
REF_FRAME      = TEME
TIME_SYSTEM    = UTC
MEAN_ELEMENT_THEORY = SGP/SGP4

EPOCH          = 2025-12-01T12:00:05.998752
MEAN_MOTION    = 15.75853252
ECCENTRICITY   = .0001339
INCLINATION    = 42.9995
RA_OF_ASC_NODE = 120.9405
ARG_OF_PERICENTER = 275.5913
MEAN_ANOMALY   = 281.9635

EPHEMERIS_TYPE = 0
CLASSIFICATION_TYPE = U
NORAD_CAT_ID   = 66522
ELEMENT_SET_NO = 999
REV_AT_EPOCH   = 318
BSTAR          = -.72283E-2
MEAN_MOTION_DOT = -.1037861E-1
MEAN_MOTION_DDOT = 0

CCSDS_OMM_VERS = 2.0
CREATION_DATE  = 
ORIGINATOR     = 

OBJECT_NAME    = STARLINK-35969
OBJECT_ID      = 2025-265H
CENTER_NAME    = EARTH
REF_FRAME      = TEME
TIME_SYSTEM    = UTC
MEAN_ELEMENT_THEORY = SGP/SGP4

EPOCH          = 2025-12-01T12:00:05.998752
MEAN_MOTION    = 15.75759915
ECCENTRICITY   = .0001417
INCLINATION    = 42.9997
RA_OF_ASC_NODE = 120.9352
ARG_OF_PERICENTER = 272.0704
MEAN_ANOMALY   = 287.4746

EPHEMERIS_TYPE = 0
CLASSIFICATION_TYPE = U
NORAD_CAT_ID   = 66523
ELEMENT_SET_NO = 999
REV_AT_EPOCH   = 318
BSTAR          = -.65819E-2
MEAN_MOTION_DOT = -.935099E-2
MEAN_MOTION_DDOT = 0

CCSDS_OMM_VERS = 2.0
CREATION_DATE  = 
ORIGINATOR     = 

OBJECT_NAME    = STARLINK-35687
OBJECT_ID      = 2025-265J
CENTER_NAME    = EARTH
REF_FRAME      = TEME
TIME_SYSTEM    = UTC
MEAN_ELEMENT_THEORY = SGP/SGP4

EPOCH          = 2025-12-01T12:00:05.998752
MEAN_MOTION    = 15.75649778
ECCENTRICITY   = .0001642
INCLINATION    = 42.9996
RA_OF_ASC_NODE = 120.9300
ARG_OF_PERICENTER = 280.0387
MEAN_ANOMALY   = 281.5035

EPHEMERIS_TYPE = 0
CLASSIFICATION_TYPE = U
NORAD_CAT_ID   = 66524
ELEMENT_SET_NO = 999
REV_AT_EPOCH   = 318
BSTAR          = -.57681E-2
MEAN_MOTION_DOT = -.826425E-2
MEAN_MOTION_DDOT = 0

CCSDS_OMM_VERS = 2.0
CREATION_DATE  = 
ORIGINATOR     = 

OBJECT_NAME    = STARLINK-35975
OBJECT_ID      = 2025-265K
CENTER_NAME    = EARTH
REF_FRAME      = TEME
TIME_SYSTEM    = UTC
MEAN_ELEMENT_THEORY = SGP/SGP4

EPOCH          = 2025-12-01T12:00:05.998752
MEAN_MOTION    = 15.75594455
ECCENTRICITY   = .0001548
INCLINATION    = 42.9995
RA_OF_ASC_NODE = 120.9254
ARG_OF_PERICENTER = 277.7144
MEAN_ANOMALY   = 285.7846

EPHEMERIS_TYPE = 0
CLASSIFICATION_TYPE = U
NORAD_CAT_ID   = 66525
ELEMENT_SET_NO = 999
REV_AT_EPOCH   = 318
BSTAR          = -.53365E-2
MEAN_MOTION_DOT = -.768053E-2
MEAN_MOTION_DDOT = 0

CCSDS_OMM_VERS = 2.0
CREATION_DATE  = 
ORIGINATOR     = 

OBJECT_NAME    = STARLINK-35932
OBJECT_ID      = 2025-265L
CENTER_NAME    = EARTH
REF_FRAME      = TEME
TIME_SYSTEM    = UTC
MEAN_ELEMENT_THEORY = SGP/SGP4

EPOCH          = 2025-12-01T12:00:05.998752
MEAN_MOTION    = 15.75489883
ECCENTRICITY   = .0001195
INCLINATION    = 42.9995
RA_OF_ASC_NODE = 120.9205
ARG_OF_PERICENTER = 282.4489
MEAN_ANOMALY   = 283.0315

EPHEMERIS_TYPE = 0
CLASSIFICATION_TYPE = U
NORAD_CAT_ID   = 66526
ELEMENT_SET_NO = 999
REV_AT_EPOCH   = 307
BSTAR          = -.44633E-2
MEAN_MOTION_DOT = -.648522E-2
MEAN_MOTION_DDOT = 0

CCSDS_OMM_VERS = 2.0
CREATION_DATE  = 
ORIGINATOR     = 

OBJECT_NAME    = STARLINK-35935
OBJECT_ID      = 2025-265M
CENTER_NAME    = EARTH
REF_FRAME      = TEME
TIME_SYSTEM    = UTC
MEAN_ELEMENT_THEORY = SGP/SGP4

EPOCH          = 2025-12-01T12:00:05.998752
MEAN_MOTION    = 15.75371184
ECCENTRICITY   = .0001699
INCLINATION    = 42.9995
RA_OF_ASC_NODE = 120.9157
ARG_OF_PERICENTER = 270.5207
MEAN_ANOMALY   = 296.9411

EPHEMERIS_TYPE = 0
CLASSIFICATION_TYPE = U
NORAD_CAT_ID   = 66527
ELEMENT_SET_NO = 999
REV_AT_EPOCH   = 318
BSTAR          = -.35552E-2
MEAN_MOTION_DOT = -.521732E-2
MEAN_MOTION_DDOT = 0

CCSDS_OMM_VERS = 2.0
CREATION_DATE  = 
ORIGINATOR     = 

OBJECT_NAME    = STARLINK-35928
OBJECT_ID      = 2025-265N
CENTER_NAME    = EARTH
REF_FRAME      = TEME
TIME_SYSTEM    = UTC
MEAN_ELEMENT_THEORY = SGP/SGP4

EPOCH          = 2025-12-01T12:00:05.998752
MEAN_MOTION    = 15.75311256
ECCENTRICITY   = .0001589
INCLINATION    = 42.9997
RA_OF_ASC_NODE = 120.9106
ARG_OF_PERICENTER = 270.4469
MEAN_ANOMALY   = 298.9713

EPHEMERIS_TYPE = 0
CLASSIFICATION_TYPE = U
NORAD_CAT_ID   = 66528
ELEMENT_SET_NO = 999
REV_AT_EPOCH   = 318
BSTAR          = -.2729E-2
MEAN_MOTION_DOT = -.405008E-2
MEAN_MOTION_DDOT = 0

CCSDS_OMM_VERS = 2.0
CREATION_DATE  = 
ORIGINATOR     = 

OBJECT_NAME    = STARLINK-35933
OBJECT_ID      = 2025-265P
CENTER_NAME    = EARTH
REF_FRAME      = TEME
TIME_SYSTEM    = UTC
MEAN_ELEMENT_THEORY = SGP/SGP4

EPOCH          = 2025-12-01T12:00:05.998752
MEAN_MOTION    = 15.75211698
ECCENTRICITY   = .0001657
INCLINATION    = 42.9997
RA_OF_ASC_NODE = 120.9054
ARG_OF_PERICENTER = 289.3268
MEAN_ANOMALY   = 282.0599

EPHEMERIS_TYPE = 0
CLASSIFICATION_TYPE = U
NORAD_CAT_ID   = 66529
ELEMENT_SET_NO = 999
REV_AT_EPOCH   = 318
BSTAR          = -.20909E-2
MEAN_MOTION_DOT = -.312424E-2
MEAN_MOTION_DDOT = 0

CCSDS_OMM_VERS = 2.0
CREATION_DATE  = 
ORIGINATOR     = 

OBJECT_NAME    = STARLINK-35961
OBJECT_ID      = 2025-265Q
CENTER_NAME    = EARTH
REF_FRAME      = TEME
TIME_SYSTEM    = UTC
MEAN_ELEMENT_THEORY = SGP/SGP4

EPOCH          = 2025-12-01T12:00:05.998752
MEAN_MOTION    = 15.75184090
ECCENTRICITY   = .0001556
INCLINATION    = 42.9996
RA_OF_ASC_NODE = 120.9007
ARG_OF_PERICENTER = 290.7085
MEAN_ANOMALY   = 282.6100

EPHEMERIS_TYPE = 0
CLASSIFICATION_TYPE = U
NORAD_CAT_ID   = 66530
ELEMENT_SET_NO = 999
REV_AT_EPOCH   = 318
BSTAR          = -.16161E-2
MEAN_MOTION_DOT = -.243251E-2
MEAN_MOTION_DDOT = 0

CCSDS_OMM_VERS = 2.0
CREATION_DATE  = 
ORIGINATOR     = 

OBJECT_NAME    = STARLINK-35960
OBJECT_ID      = 2025-265R
CENTER_NAME    = EARTH
REF_FRAME      = TEME
TIME_SYSTEM    = UTC
MEAN_ELEMENT_THEORY = SGP/SGP4

EPOCH          = 2025-12-01T12:00:05.998752
MEAN_MOTION    = 15.75145201
ECCENTRICITY   = .0001789
INCLINATION    = 42.9995
RA_OF_ASC_NODE = 120.8953
ARG_OF_PERICENTER = 269.1296
MEAN_ANOMALY   = 306.1222

EPHEMERIS_TYPE = 0
CLASSIFICATION_TYPE = U
NORAD_CAT_ID   = 66531
ELEMENT_SET_NO = 999
REV_AT_EPOCH   = 318
BSTAR          = -.13191E-2
MEAN_MOTION_DOT = -.19933E-2
MEAN_MOTION_DDOT = 0

CCSDS_OMM_VERS = 2.0
CREATION_DATE  = 
ORIGINATOR     = 

OBJECT_NAME    = STARLINK-35914
OBJECT_ID      = 2025-265S
CENTER_NAME    = EARTH
REF_FRAME      = TEME
TIME_SYSTEM    = UTC
MEAN_ELEMENT_THEORY = SGP/SGP4

EPOCH          = 2025-12-01T12:00:05.998752
MEAN_MOTION    = 15.75076281
ECCENTRICITY   = .0001354
INCLINATION    = 42.9995
RA_OF_ASC_NODE = 120.8910
ARG_OF_PERICENTER = 258.2422
MEAN_ANOMALY   = 318.9548

EPHEMERIS_TYPE = 0
CLASSIFICATION_TYPE = U
NORAD_CAT_ID   = 66532
ELEMENT_SET_NO = 999
REV_AT_EPOCH   = 318
BSTAR          = -.80176E-3
MEAN_MOTION_DOT = -.122065E-2
MEAN_MOTION_DDOT = 0

