STARLINK-35915          
1 66521U 25265F   25335.50006943 -.01181742  00000+0 -83026-2 0  9991
2 66521  42.9996 120.9453 0001337 281.4351 274.0916 15.75995969  3189
STARLINK-35946          
1 66522U 25265G   25335.50006943 -.01037861  00000+0 -72283-2 0  9997
2 66522  42.9995 120.9405 0001339 275.5913 281.9635 15.75853252  3189
STARLINK-35969          
1 66523U 25265H   25335.50006943 -.00935099  00000+0 -65819-2 0  9994
2 66523  42.9997 120.9352 0001417 272.0704 287.4746 15.75759915  3185
STARLINK-35687          
1 66524U 25265J   25335.50006943 -.00826425  00000+0 -57681-2 0  9995
2 66524  42.9996 120.9300 0001642 280.0387 281.5035 15.75649778  3185
STARLINK-35975          
1 66525U 25265K   25335.50006943 -.00768053  00000+0 -53365-2 0  9993
2 66525  42.9995 120.9254 0001548 277.7144 285.7846 15.75594455  3189
STARLINK-35932          
1 66526U 25265L   25335.50006943 -.00648522  00000+0 -44633-2 0  9990
2 66526  42.9995 120.9205 0001195 282.4489 283.0315 15.75489883  3077
STARLINK-35935          
1 66527U 25265M   25335.50006943 -.00521732  00000+0 -35552-2 0  9994
2 66527  42.9995 120.9157 0001699 270.5207 296.9411 15.75371184  3185
STARLINK-35928          
1 66528U 25265N   25335.50006943 -.00405008  00000+0 -27290-2 0  9992
2 66528  42.9997 120.9106 0001589 270.4469 298.9713 15.75311256  3180
STARLINK-35933          
1 66529U 25265P   25335.50006943 -.00312424  00000+0 -20909-2 0  9992
2 66529  42.9997 120.9054 0001657 289.3268 282.0599 15.75211698  3180
STARLINK-35961          
1 66530U 25265Q   25335.50006943 -.00243251  00000+0 -16161-2 0  9990
2 66530  42.9996 120.9007 0001556 290.7085 282.6100 15.75184090  3189
STARLINK-35960          
1 66531U 25265R   25335.50006943 -.00199330  00000+0 -13191-2 0  9999
2 66531  42.9995 120.8953 0001789 269.1296 306.1222 15.75145201  3188
STARLINK-35914          
1 66532U 25265S   25335.50006943 -.00122065  00000+0 -80176-3 0  9999
2 66532  42.9995 120.8910 0001354 258.2422 318.9548 15.75076281  3183
